NORAD_CAT_ID,OBJECT_NAME,OBJECT_TYPE,EPOCH,MEAN_MOTION,ECCENTRICITY,INCLINATION,RA_OF_ASC_NODE,ARG_OF_PERICENTER,MEAN_ANOMALY,BSTAR,MEAN_MOTION_DOT,MEAN_MOTION_DDOT,TLE_LINE0,TLE_LINE1,TLE_LINE2,SEMIMAJOR_AXIS,PERIOD,APOGEE,PERIGEE,DECAYED
53741.0,STARLINK-4614,PAYLOAD,2023-05-22 18:34:25,15.08837222,0.0001119,53.2155,156.4512,75.2535,284.8581,-2.2444e-05,-6.45e-06,0.0,0 STARLINK-4614,1 53741U 22107AT  23142.77391100 -.00000645  00000-0 -22444-4 0  9999,2 53741  53.2155 156.4512 0001119  75.2535 284.8581 15.08837222 40532,6917.889,95.438,540.528,538.98,0.0
53741.0,STARLINK-4614,PAYLOAD,2023-05-23 07:17:30,15.08838505,0.0001115,53.2157,154.0712,81.9599,278.1519,-8.2007e-06,-4.18e-06,0.0,0 STARLINK-4614,1 53741U 22107AT  23143.30382985 -.00000418  00000-0 -82007-5 0  9990,2 53741  53.2157 154.0712 0001115  81.9599 278.1519 15.08838505 39833,6917.885,95.438,540.521,538.979,0.0
53741.0,STARLINK-4614,PAYLOAD,2023-05-24 10:19:04,15.08837723,0.0001096,53.2159,149.0161,79.1141,280.9975,5.6836e-05,6.17e-06,0.0,0 STARLINK-4614,1 53741U 22107AT  23144.42990939  .00000617  00000-0  56836-4 0  9997,2 53741  53.2159 149.0161 0001096  79.1141 280.9975 15.08837723 40006,6917.887,95.438,540.511,538.994,0.0
53741.0,STARLINK-4614,PAYLOAD,2023-05-26 03:39:06,15.08837303,0.0001201,53.2161,141.2838,83.0375,277.0753,2.1147e-06,-2.54e-06,0.0,0 STARLINK-4614,1 53741U 22107AT  23146.15215400 -.00000254  00000-0  21147-5 0  9998,2 53741  53.2161 141.2838 0001201  83.0375 277.0753 15.08837303 40268,6917.889,95.438,540.584,538.923,0.0
53741.0,STARLINK-4614,PAYLOAD,2023-05-26 08:25:15,15.08837462,0.0001207,53.2161,140.3917,80.2472,279.8656,3.1583e-06,-2.38e-06,0.0,0 STARLINK-4614,1 53741U 22107AT  23146.35087422 -.00000238  00000-0  31583-5 0  9998,2 53741  53.2161 140.3917 0001207  80.2472 279.8656 15.08837462 41077,6917.888,95.438,540.588,538.918,0.0
53741.0,STARLINK-4614,PAYLOAD,2023-05-27 05:05:16,15.08834531,0.0001161,53.2159,136.5259,80.6522,279.4601,6.0965e-06,-1.91e-06,0.0,0 STARLINK-4614,1 53741U 22107AT  23147.21199773 -.00000191  00000-0  60965-5 0  9991,2 53741  53.2159 136.5259 0001161  80.6522 279.4601 15.08834531 40427,6917.897,95.438,540.565,538.959,0.0
53741.0,STARLINK-4614,PAYLOAD,2023-05-27 16:12:58,15.08836043,0.0001166,53.2159,134.4458,81.1006,279.0118,1.0326e-05,-1.23e-06,0.0,0 STARLINK-4614,1 53741U 22107AT  23147.67567789 -.00000123  00000-0  10326-4 0  9997,2 53741  53.2159 134.4458 0001166  81.1006 279.0118 15.08836043 41276,6917.892,95.438,540.564,538.951,0.0
53741.0,STARLINK-4614,PAYLOAD,2023-05-28 06:31:26,15.08838589,0.000117,53.2157,131.7693,80.8368,279.2757,2.9304e-05,1.79e-06,0.0,0 STARLINK-4614,1 53741U 22107AT  23148.27183643  .00000179  00000-0  29304-4 0  9993,2 53741  53.2157 131.7693 0001170  80.8368 279.2757 15.08838589 41365,6917.885,95.438,540.559,538.94,0.0
53741.0,STARLINK-4614,PAYLOAD,2023-05-28 08:06:49,15.08838671,0.0001173,53.2157,131.4719,80.6672,279.4453,2.9536e-05,1.82e-06,0.0,0 STARLINK-4614,1 53741U 22107AT  23148.33807642  .00000182  00000-0  29536-4 0  9993,2 53741  53.2157 131.4719 0001173  80.6672 279.4453 15.08838671 40591,6917.884,95.438,540.561,538.938,0.0
53741.0,STARLINK-4614,PAYLOAD,2023-05-28 16:03:45,15.08837829,0.000117,53.2158,129.9851,80.1353,279.9771,3.8042e-05,3.18e-06,0.0,0 STARLINK-4614,1 53741U 22107AT  23148.66927683  .00000318  00000-0  38042-4 0  9990,2 53741  53.2158 129.9851 0001170  80.1353 279.9771 15.08837829 41424,6917.887,95.438,540.561,538.943,0.0
53741.0,STARLINK-4614,PAYLOAD,2023-05-29 07:57:36,15.08839331,0.0001198,53.216,127.0112,80.4201,279.6927,4.4375e-05,4.18e-06,0.0,0 STARLINK-4614,1 53741U 22107AT  23149.33167615  .00000418  00000-0  44375-4 0  9993,2 53741  53.2160 127.0112 0001198  80.4201 279.6927 15.08839331 41522,6917.882,95.438,540.576,538.919,0.0
53741.0,STARLINK-4614,PAYLOAD,2023-05-29 15:54:32,15.08838476,0.0001204,53.2161,125.5244,80.076,280.0368,2.752e-05,1.5e-06,0.0,0 STARLINK-4614,1 53741U 22107AT  23149.66287719  .00000150  00000-0  27520-4 0  9993,2 53741  53.2161 125.5244 0001204  80.0760 280.0368 15.08838476 40798,6917.885,95.438,540.583,538.917,0.0
53741.0,STARLINK-4614,PAYLOAD,2023-05-30 04:37:37,15.08839933,0.0001215,53.2161,123.1454,80.8922,279.2207,1.5936e-05,-3.4e-07,0.0,0 STARLINK-4614,1 53741U 22107AT  23150.19279660 -.00000034  00000-0  15936-4 0  9999,2 53741  53.2161 123.1454 0001215  80.8922 279.2207 15.08839933 41652,6917.881,95.438,540.586,538.905,0.0
53741.0,STARLINK-4614,PAYLOAD,2023-05-30 22:06:52,15.08838945,0.0001216,53.2162,119.874,81.8922,278.2208,7.1948e-06,-1.73e-06,0.0,0 STARLINK-4614,1 53741U 22107AT  23150.92143709 -.00000173  00000-0  71948-5 0  9994,2 53741  53.2162 119.8740 0001216  81.8922 278.2208 15.08838945 41769,6917.884,95.438,540.59,538.907,0.0
53741.0,STARLINK-4614,PAYLOAD,2023-05-31 02:53:01,15.08839468,0.000122,53.2163,118.982,81.5799,278.5332,1.1546e-05,-1.04e-06,0.0,0 STARLINK-4614,1 53741U 22107AT  23151.12015653 -.00000104  00000-0  11546-4 0  9994,2 53741  53.2163 118.9820 0001220  81.5799 278.5332 15.08839468 41013,6917.882,95.438,540.591,538.903,0.0
53741.0,STARLINK-4614,PAYLOAD,2023-05-31 07:39:10,15.08840271,0.0001231,53.2162,118.0898,82.6832,277.43,1.4193e-05,-6.2e-07,0.0,0 STARLINK-4614,1 53741U 22107AT  23151.31887583 -.00000062  00000-0  14193-4 0  9998,2 53741  53.2162 118.0898 0001231  82.6832 277.4300 15.08840271 41826,6917.88,95.438,540.596,538.893,0.0
53741.0,STARLINK-4614,PAYLOAD,2023-06-01 04:19:11,15.08838768,0.0001234,53.2163,114.2237,84.1035,276.0098,1.2713e-05,-8.6e-07,0.0,0 STARLINK-4614,1 53741U 22107AT  23152.17999711 -.00000086  00000-0  12713-4 0  9992,2 53741  53.2163 114.2237 0001234  84.1035 276.0098 15.08838768 41958,6917.884,95.438,540.603,538.895,0.0
53741.0,STARLINK-4614,PAYLOAD,2023-06-01 21:48:26,15.08835462,0.0001235,53.2162,110.9531,85.3848,274.7285,-1.5591e-05,-5.36e-06,0.0,0 STARLINK-4614,1 53741U 22107AT  23152.90864117 -.00000536  00000-0 -15591-4 0  9992,2 53741  53.2162 110.9531 0001235  85.3848 274.7285 15.08835462 41280,6917.894,95.438,540.614,538.905,0.0
53741.0,STARLINK-4614,PAYLOAD,2023-06-02 04:09:59,15.088368,0.0001228,53.2162,109.7638,85.3809,274.7324,-3.0902e-06,-3.37e-06,0.0,0 STARLINK-4614,1 53741U 22107AT  23153.17360041 -.00000337  00000-0 -30902-5 0  9992,2 53741  53.2162 109.7638 0001228  85.3809 274.7324 15.08836800 42106,6917.89,95.438,540.605,538.906,0.0
53741.0,STARLINK-4614,PAYLOAD,2023-06-03 04:00:46,15.08834185,0.0001247,53.2162,105.3038,85.9231,274.1903,-6.7263e-06,-3.95e-06,0.0,0 STARLINK-4614,1 53741U 22107AT  23154.16720516 -.00000395  00000-0 -67263-5 0  9993,2 53741  53.2162 105.3038 0001247  85.9231 274.1903 15.08834185 41478,6917.898,95.438,540.626,538.901,0.0
53741.0,STARLINK-4614,PAYLOAD,2023-06-03 07:11:32,15.08835147,0.0001253,53.2162,104.709,85.4232,274.6903,1.1675e-06,-2.69e-06,0.0,0 STARLINK-4614,1 53741U 22107AT  23154.29968479 -.00000269  00000-0  11675-5 0  9994,2 53741  53.2162 104.7090 0001253  85.4232 274.6903 15.08835147 42275,6917.895,95.438,540.627,538.893,0.0
53741.0,STARLINK-4614,PAYLOAD,2023-06-04 03:51:33,15.08836171,0.0001247,53.2164,100.8431,87.2951,272.8183,2.0027e-05,3.1e-07,0.0,0 STARLINK-4614,1 53741U 22107AT  23155.16080592  .00000031  00000-0  20027-4 0  9998,2 53741  53.2164 100.8431 0001247  87.2951 272.8183 15.08836171 42407,6917.892,95.438,540.62,538.894,0.0
53741.0,STARLINK-4614,PAYLOAD,2023-06-04 19:45:24,15.08837386,0.0001247,53.2165,97.8693,90.4451,269.6684,3.9043e-05,3.34e-06,0.0,0 STARLINK-4614,1 53741U 22107AT  23155.82320545  .00000334  00000-0  39043-4 0  9990,2 53741  53.2165  97.8693 0001247  90.4451 269.6684 15.08837386 41727,6917.888,95.438,540.616,538.891,0.0
53741.0,STARLINK-4614,PAYLOAD,2023-06-05 13:14:39,15.0883691,0.0001309,53.2167,94.5985,85.4205,274.6937,2.2912e-05,7.7e-07,0.0,0 STARLINK-4614,1 53741U 22107AT  23156.55184734  .00000077  00000-0  22912-4 0  9990,2 53741  53.2167  94.5985 0001309  85.4205 274.6937 15.08836910 42615,6917.89,95.438,540.66,538.849,0.0
53741.0,STARLINK-4614,PAYLOAD,2023-06-05 14:50:02,15.08836192,0.0001323,53.2166,94.3011,86.5372,273.5771,2.2764e-05,7.4e-07,0.0,0 STARLINK-4614,1 53741U 22107AT  23156.61808793  .00000074  00000-0  22764-4 0  9997,2 53741  53.2166  94.3011 0001323  86.5372 273.5771 15.08836192 42622,6917.892,95.438,540.672,538.842,0.0
53741.0,STARLINK-4614,PAYLOAD,2023-06-06 00:22:21,15.08836121,0.000133,53.2167,92.5168,86.9363,273.1782,-6.6942e-06,-3.94e-06,0.0,0 STARLINK-4614,1 53741U 22107AT  23157.01552975 -.00000394  00000-0 -66942-5 0  9994,2 53741  53.2167  92.5168 0001330  86.9363 273.1782 15.08836121 41908,6917.892,95.438,540.677,538.837,0.0
53741.0,STARLINK-4614,PAYLOAD,2023-06-06 01:57:44,15.08836383,0.0001332,53.2167,92.2195,86.8366,273.2778,-4.291e-06,-3.56e-06,0.0,0 STARLINK-4614,1 53741U 22107AT  23157.08176966 -.00000356  00000-0 -42910-5 0  9990,2 53741  53.2167  92.2195 0001332  86.8366 273.2778 15.08836383 42692,6917.891,95.438,540.678,538.835,0.0
53741.0,STARLINK-4614,PAYLOAD,2023-06-06 19:26:59,15.08840932,0.0001328,53.2169,88.9484,86.895,273.2194,1.7115e-05,-1.6e-07,0.0,0 STARLINK-4614,1 53741U 22107AT  23157.81040626 -.00000016  00000-0  17115-4 0  9994,2 53741  53.2169  88.9484 0001328  86.8950 273.2194 15.08840932 42801,6917.878,95.437,540.661,538.824,0.0
53741.0,STARLINK-4614,PAYLOAD,2023-06-07 01:48:31,15.08842152,0.0001328,53.217,87.7589,87.0897,273.0247,2.6189e-05,1.29e-06,0.0,0 STARLINK-4614,1 53741U 22107AT  23158.07536488  .00000129  00000-0  26189-4 0  9994,2 53741  53.2170  87.7589 0001328  87.0897 273.0247 15.08842152 42060,6917.874,95.437,540.658,538.82,0.0
53741.0,STARLINK-4614,PAYLOAD,2023-06-07 22:28:32,15.08837193,0.000132,53.2173,83.8934,86.0723,274.042,2.9344e-05,1.79e-06,0.0,0 STARLINK-4614,1 53741U 22107AT  23158.93648765  .00000179  00000-0  29344-4 0  9992,2 53741  53.2173  83.8934 0001320  86.0723 274.0420 15.08837193 42190,6917.889,95.438,540.667,538.841,0.0
